STARLINK-31009          
1 58530U 23191Y   26068.50689941  .00080329  00000+0  29373-2 0  9998
2 58530  42.9983 104.4335 0002046 225.1892 134.8793 15.27125173125466
HAWK-11C                
1 62381U 24247E   26068.51221537  .00009223  00000+0  33290-3 0  9992
2 62381  45.0045 114.8762 0005900 329.7040  30.3502 15.28848020 67743
